CCSDS_OMM_VERS = 2.0
CREATION_DATE  = 
ORIGINATOR     = 

OBJECT_NAME    = 2025-274B
OBJECT_ID      = 2025-274B
CENTER_NAME    = EARTH
REF_FRAME      = TEME
TIME_SYSTEM    = UTC
MEAN_ELEMENT_THEORY = SGP/SGP4

EPOCH          = 2025-12-29T06:01:46.117344
MEAN_MOTION    = 14.91926961
ECCENTRICITY   = .0011722
INCLINATION    = 97.7395
RA_OF_ASC_NODE = 290.1419
ARG_OF_PERICENTER = 190.2780
MEAN_ANOMALY   = 169.8201

EPHEMERIS_TYPE = 0
CLASSIFICATION_TYPE = U
NORAD_CAT_ID   = 66651
ELEMENT_SET_NO = 999
REV_AT_EPOCH   = 486
BSTAR          = .51796E-3
MEAN_MOTION_DOT = .5193E-4
MEAN_MOTION_DDOT = 0

CCSDS_OMM_VERS = 2.0
CREATION_DATE  = 
ORIGINATOR     = 

OBJECT_NAME    = 2025-274C
OBJECT_ID      = 2025-274C
CENTER_NAME    = EARTH
REF_FRAME      = TEME
TIME_SYSTEM    = UTC
MEAN_ELEMENT_THEORY = SGP/SGP4

EPOCH          = 2025-12-28T18:42:13.451904
MEAN_MOTION    = 14.92000994
ECCENTRICITY   = .00111368
INCLINATION    = 97.7402
RA_OF_ASC_NODE = 289.6858
ARG_OF_PERICENTER = 198.2417
MEAN_ANOMALY   = 161.8404

EPHEMERIS_TYPE = 0
CLASSIFICATION_TYPE = U
NORAD_CAT_ID   = 66652
ELEMENT_SET_NO = 999
REV_AT_EPOCH   = 479
BSTAR          = .34630656E-3
MEAN_MOTION_DOT = .3458E-4
MEAN_MOTION_DDOT = 0

CCSDS_OMM_VERS = 2.0
CREATION_DATE  = 
ORIGINATOR     = 

OBJECT_NAME    = 2025-274D
OBJECT_ID      = 2025-274D
CENTER_NAME    = EARTH
REF_FRAME      = TEME
TIME_SYSTEM    = UTC
MEAN_ELEMENT_THEORY = SGP/SGP4

EPOCH          = 2025-12-29T01:08:28.294944
MEAN_MOTION    = 14.91988365
ECCENTRICITY   = .00121609
INCLINATION    = 97.7403
RA_OF_ASC_NODE = 289.9487
ARG_OF_PERICENTER = 194.1800
MEAN_ANOMALY   = 165.9080

EPHEMERIS_TYPE = 0
CLASSIFICATION_TYPE = U
NORAD_CAT_ID   = 66653
ELEMENT_SET_NO = 999
REV_AT_EPOCH   = 483
BSTAR          = .30629677E-3
MEAN_MOTION_DOT = .3052E-4
MEAN_MOTION_DDOT = 0

CCSDS_OMM_VERS = 2.0
CREATION_DATE  = 
ORIGINATOR     = 

OBJECT_NAME    = JACK E
OBJECT_ID      = 2025-274E
CENTER_NAME    = EARTH
REF_FRAME      = TEME
TIME_SYSTEM    = UTC
MEAN_ELEMENT_THEORY = SGP/SGP4

EPOCH          = 2025-12-29T13:55:30.544032
MEAN_MOTION    = 14.92182153
ECCENTRICITY   = .00127489
INCLINATION    = 97.7403
RA_OF_ASC_NODE = 290.4819
ARG_OF_PERICENTER = 194.1294
MEAN_ANOMALY   = 165.9570

EPHEMERIS_TYPE = 0
CLASSIFICATION_TYPE = U
NORAD_CAT_ID   = 66654
ELEMENT_SET_NO = 999
REV_AT_EPOCH   = 491
BSTAR          = .36747427E-3
MEAN_MOTION_DOT = .3692E-4
MEAN_MOTION_DDOT = 0

CCSDS_OMM_VERS = 2.0
CREATION_DATE  = 
ORIGINATOR     = 

OBJECT_NAME    = 2025-274F
OBJECT_ID      = 2025-274F
CENTER_NAME    = EARTH
REF_FRAME      = TEME
TIME_SYSTEM    = UTC
MEAN_ELEMENT_THEORY = SGP/SGP4

EPOCH          = 2025-12-29T07:43:28.435296
MEAN_MOTION    = 14.91219696
ECCENTRICITY   = .00036009
INCLINATION    = 97.7337
RA_OF_ASC_NODE = 290.1923
ARG_OF_PERICENTER = 324.8514
MEAN_ANOMALY   = 35.2466

EPHEMERIS_TYPE = 0
CLASSIFICATION_TYPE = U
NORAD_CAT_ID   = 66655
ELEMENT_SET_NO = 999
REV_AT_EPOCH   = 487
BSTAR          = -.1798101E-5
MEAN_MOTION_DOT = -.73E-6
MEAN_MOTION_DDOT = 0

CCSDS_OMM_VERS = 2.0
CREATION_DATE  = 
ORIGINATOR     = 

OBJECT_NAME    = 2025-274G
OBJECT_ID      = 2025-274G
CENTER_NAME    = EARTH
REF_FRAME      = TEME
TIME_SYSTEM    = UTC
MEAN_ELEMENT_THEORY = SGP/SGP4

EPOCH          = 2025-12-29T08:59:50.341344
MEAN_MOTION    = 14.92380600
ECCENTRICITY   = .00132667
INCLINATION    = 97.7401
RA_OF_ASC_NODE = 290.2886
ARG_OF_PERICENTER = 196.2681
MEAN_ANOMALY   = 163.8114

EPHEMERIS_TYPE = 0
CLASSIFICATION_TYPE = U
NORAD_CAT_ID   = 66656
ELEMENT_SET_NO = 999
REV_AT_EPOCH   = 488
BSTAR          = .39391618E-3
MEAN_MOTION_DOT = .3982E-4
MEAN_MOTION_DDOT = 0

CCSDS_OMM_VERS = 2.0
CREATION_DATE  = 
ORIGINATOR     = 

OBJECT_NAME    = SPIRONE
OBJECT_ID      = 2025-274H
CENTER_NAME    = EARTH
REF_FRAME      = TEME
TIME_SYSTEM    = UTC
MEAN_ELEMENT_THEORY = SGP/SGP4

EPOCH          = 2025-12-29T08:54:11.494368
MEAN_MOTION    = 14.92560919
ECCENTRICITY   = .00111528
INCLINATION    = 97.7399
RA_OF_ASC_NODE = 290.2929
ARG_OF_PERICENTER = 213.1380
MEAN_ANOMALY   = 146.9141

EPHEMERIS_TYPE = 0
CLASSIFICATION_TYPE = U
NORAD_CAT_ID   = 66657
ELEMENT_SET_NO = 999
REV_AT_EPOCH   = 488
BSTAR          = .42763232E-3
MEAN_MOTION_DOT = .4345E-4
MEAN_MOTION_DDOT = 0

CCSDS_OMM_VERS = 2.0
CREATION_DATE  = 
ORIGINATOR     = 

OBJECT_NAME    = 2025-274J
OBJECT_ID      = 2025-274J
CENTER_NAME    = EARTH
REF_FRAME      = TEME
TIME_SYSTEM    = UTC
MEAN_ELEMENT_THEORY = SGP/SGP4

EPOCH          = 2025-12-29T08:48:40.922784
MEAN_MOTION    = 14.92759487
ECCENTRICITY   = .00116258
INCLINATION    = 97.7401
RA_OF_ASC_NODE = 290.2982
ARG_OF_PERICENTER = 215.9418
MEAN_ANOMALY   = 144.1020

EPHEMERIS_TYPE = 0
CLASSIFICATION_TYPE = U
NORAD_CAT_ID   = 66658
ELEMENT_SET_NO = 999
REV_AT_EPOCH   = 488
BSTAR          = .7038188E-3
MEAN_MOTION_DOT = .7228E-4
MEAN_MOTION_DDOT = 0

CCSDS_OMM_VERS = 2.0
CREATION_DATE  = 
ORIGINATOR     = 

OBJECT_NAME    = JACK K
OBJECT_ID      = 2025-274K
CENTER_NAME    = EARTH
REF_FRAME      = TEME
TIME_SYSTEM    = UTC
MEAN_ELEMENT_THEORY = SGP/SGP4

EPOCH          = 2025-12-29T07:06:26.444160
MEAN_MOTION    = 14.92910488
ECCENTRICITY   = .0012328
INCLINATION    = 97.7403
RA_OF_ASC_NODE = 290.2384
ARG_OF_PERICENTER = 218.0453
MEAN_ANOMALY   = 141.9897

EPHEMERIS_TYPE = 0
CLASSIFICATION_TYPE = U
NORAD_CAT_ID   = 66659
ELEMENT_SET_NO = 999
REV_AT_EPOCH   = 487
BSTAR          = .45101E-3
MEAN_MOTION_DOT = .4628E-4
MEAN_MOTION_DDOT = 0

CCSDS_OMM_VERS = 2.0
CREATION_DATE  = 
ORIGINATOR     = 

OBJECT_NAME    = K-HERO
OBJECT_ID      = 2025-274L
CENTER_NAME    = EARTH
REF_FRAME      = TEME
TIME_SYSTEM    = UTC
MEAN_ELEMENT_THEORY = SGP/SGP4

EPOCH          = 2025-12-28T18:09:40.014432
MEAN_MOTION    = 14.93054333
ECCENTRICITY   = .00129085
INCLINATION    = 97.7406
RA_OF_ASC_NODE = 289.7166
ARG_OF_PERICENTER = 221.0124
MEAN_ANOMALY   = 139.0126

EPHEMERIS_TYPE = 0
CLASSIFICATION_TYPE = U
NORAD_CAT_ID   = 66660
ELEMENT_SET_NO = 999
REV_AT_EPOCH   = 479
BSTAR          = .39837444E-3
MEAN_MOTION_DOT = .4097E-4
MEAN_MOTION_DDOT = 0

CCSDS_OMM_VERS = 2.0
CREATION_DATE  = 
ORIGINATOR     = 

OBJECT_NAME    = SNUGLITE-III
OBJECT_ID      = 2025-274M
CENTER_NAME    = EARTH
REF_FRAME      = TEME
TIME_SYSTEM    = UTC
MEAN_ELEMENT_THEORY = SGP/SGP4

EPOCH          = 2025-12-29T08:33:46.333728
MEAN_MOTION    = 14.93189060
ECCENTRICITY   = .00135416
INCLINATION    = 97.7404
RA_OF_ASC_NODE = 290.3129
ARG_OF_PERICENTER = 220.2468
MEAN_ANOMALY   = 139.7750

EPHEMERIS_TYPE = 0
CLASSIFICATION_TYPE = U
NORAD_CAT_ID   = 66661
ELEMENT_SET_NO = 999
REV_AT_EPOCH   = 488
BSTAR          = .3955113E-3
MEAN_MOTION_DOT = .4081E-4
MEAN_MOTION_DDOT = 0

CCSDS_OMM_VERS = 2.0
CREATION_DATE  = 
ORIGINATOR     = 

OBJECT_NAME    = 2025-274N
OBJECT_ID      = 2025-274N
CENTER_NAME    = EARTH
REF_FRAME      = TEME
TIME_SYSTEM    = UTC
MEAN_ELEMENT_THEORY = SGP/SGP4

EPOCH          = 2025-12-29T08:31:58.995552
MEAN_MOTION    = 14.93249054
ECCENTRICITY   = .00139646
INCLINATION    = 97.7402
RA_OF_ASC_NODE = 290.3150
ARG_OF_PERICENTER = 219.9132
MEAN_ANOMALY   = 140.1062

EPHEMERIS_TYPE = 0
CLASSIFICATION_TYPE = U
NORAD_CAT_ID   = 66662
ELEMENT_SET_NO = 999
REV_AT_EPOCH   = 488
BSTAR          = .47146804E-3
MEAN_MOTION_DOT = .4885E-4
MEAN_MOTION_DDOT = 0

