2025-274B               
1 66651U 25274B   25363.25122821  .00005193  00000+0  51796-3 0  9994
2 66651  97.7395 290.1419 0011722 190.2780 169.8201 14.91926961  4865
2025-274C               
1 66652U 25274C   25362.77932236  .00003458  00000+0  34631-3 0  9991
2 66652  97.7402 289.6858 0011136 198.2417 161.8404 14.92000994  4798
2025-274D               
1 66653U 25274D   25363.04754971  .00003052  00000+0  30630-3 0  9996
2 66653  97.7403 289.9487 0012160 194.1800 165.9080 14.91988365  4836
JACK E                  
1 66654U 25274E   25363.58021463  .00003692  00000+0  36747-3 0  9994
2 66654  97.7403 290.4819 0012748 194.1294 165.9570 14.92182153  4917
2025-274F               
1 66655U 25274F   25363.32185689 -.00000073  00000+0 -17981-5 0  9991
2 66655  97.7337 290.1923 0003600 324.8514  35.2466 14.91219696  4871
2025-274G               
1 66656U 25274G   25363.37488821  .00003982  00000+0  39392-3 0  9999
2 66656  97.7401 290.2886 0013266 196.2681 163.8114 14.92380600  4882
SPIRONE                 
1 66657U 25274H   25363.37096637  .00004345  00000+0  42763-3 0  9990
2 66657  97.7399 290.2929 0011152 213.1380 146.9141 14.92560919  4889
2025-274J               
1 66658U 25274J   25363.36714031  .00007228  00000+0  70382-3 0  9996
2 66658  97.7401 290.2982 0011625 215.9418 144.1020 14.92759487  4886
JACK K                  
1 66659U 25274K   25363.29613940  .00004628  00000+0  45101-3 0  9998
2 66659  97.7403 290.2384 0012328 218.0453 141.9897 14.92910488  4875
K-HERO                  
1 66660U 25274L   25362.75671313  .00004097  00000+0  39837-3 0  9997
2 66660  97.7406 289.7166 0012908 221.0124 139.0126 14.93054333  4797
SNUGLITE-III            
1 66661U 25274M   25363.35678627  .00004081  00000+0  39551-3 0  9996
2 66661  97.7404 290.3129 0013541 220.2468 139.7750 14.93189060  4885
2025-274N               
1 66662U 25274N   25363.35554393  .00004885  00000+0  47147-3 0  9992
2 66662  97.7402 290.3150 0013964 219.9132 140.1062 14.93249054  4882
